NORAD_CAT_ID,OBJECT_NAME,OBJECT_TYPE,EPOCH,MEAN_MOTION,ECCENTRICITY,INCLINATION,RA_OF_ASC_NODE,ARG_OF_PERICENTER,MEAN_ANOMALY,BSTAR,MEAN_MOTION_DOT,MEAN_MOTION_DDOT,TLE_LINE0,TLE_LINE1,TLE_LINE2,SEMIMAJOR_AXIS,PERIOD,APOGEE,PERIGEE,DECAYED
53999.0,STARLINK-5079,PAYLOAD,2023-01-05 18:04:26,15.08832406,0.0001578,53.2169,16.7162,56.2147,303.8995,-3.1189e-05,-7.84e-06,0.0,0 STARLINK-5079,1 53999U 22125AM  23005.75308342 -.00000784  00000-0 -31189-4 0  9996,2 53999  53.2169  16.7162 0001578  56.2147 303.8995 15.08832406 14506,6917.904,95.438,540.86,538.677,0.0
53999.0,STARLINK-5079,PAYLOAD,2023-01-06 09:58:17,15.08843992,0.000174,53.2164,13.7417,64.616,295.5012,0.00030043,4.497e-05,0.0,0 STARLINK-5079,1 53999U 22125AM  23006.41548366  .00004497  00000-0  30043-3 0  9992,2 53999  53.2164  13.7417 0001740  64.6160 295.5012 15.08843992 14677,6917.868,95.437,540.937,538.529,0.0
53999.0,STARLINK-5079,PAYLOAD,2023-01-06 11:33:40,15.08844164,0.0001736,53.2161,13.444,64.9792,295.138,0.0003905,5.933e-05,0.0,0 STARLINK-5079,1 53999U 22125AM  23006.48172359  .00005933  00000-0  39050-3 0  9997,2 53999  53.2161  13.4440 0001736  64.9792 295.1380 15.08844164 14616,6917.868,95.437,540.934,538.5319999999998,0.0
53999.0,STARLINK-5079,PAYLOAD,2023-01-07 06:38:19,15.08839685,0.0001619,53.2164,9.8754,69.1454,290.9712,0.00049235,7.556e-05,0.0,0 STARLINK-5079,1 53999U 22125AM  23007.27661139  .00007556  00000-0  49235-3 0  9993,2 53999  53.2164   9.8754 0001619  69.1454 290.9712 15.08839685 14735,6917.880999999999,95.438,540.866,538.626,0.0
53999.0,STARLINK-5079,PAYLOAD,2023-01-07 09:49:05,15.08847488,0.00016,53.2164,9.2805,69.1386,290.9777,0.00083709,0.00013062,0.0,0 STARLINK-5079,1 53999U 22125AM  23007.40909074  .00013062  00000-0  83709-3 0  9994,2 53999  53.2164   9.2805 0001600  69.1386 290.9777 15.08847488 14821,6917.858,95.437,540.8290000000002,538.616,0.0
53999.0,STARLINK-5079,PAYLOAD,2023-01-07 11:24:28,15.08851237,0.0001576999999999,53.2165,8.9832,68.3745,291.7415,0.00089384,0.0001396999999999,0.0,0 STARLINK-5079,1 53999U 22125AM  23007.47532998  .00013970  00000-0  89384-3 0  9991,2 53999  53.2165   8.9832 0001577  68.3745 291.7415 15.08851237 14769,6917.846,95.437,540.802,538.62,0.0
53999.0,STARLINK-5079,PAYLOAD,2023-01-08 00:07:33,15.08852152,0.0001661,53.2164,6.6039,70.7377,289.3795,0.00095817,0.00014999,0.0,0 STARLINK-5079,1 53999U 22125AM  23008.00525128  .00014999  00000-0  95817-3 0  9998,2 53999  53.2164   6.6039 0001661  70.7377 289.3795 15.08852152 14912,6917.843000000002,95.437,540.857,538.559,0.0
53999.0,STARLINK-5079,PAYLOAD,2023-01-08 11:15:15,15.08865642,0.0001696999999999,53.2168,4.5223,76.6434,283.4748,0.0008985,0.00014051,0.0,0 STARLINK-5079,1 53999U 22125AM  23008.46892444  .00014051  00000-0  89850-3 0  9995,2 53999  53.2168   4.5223 0001697  76.6434 283.4748 15.08865642 14917,6917.802,95.436,540.841,538.493,0.0
53999.0,STARLINK-5079,PAYLOAD,2023-01-09 06:19:52,15.08856084,0.0002448,53.217,0.9539,91.3716,268.7557,0.00047804,7.331e-05,0.0,0 STARLINK-5079,1 53999U 22125AM  23009.26380501  .00007331  00000-0  47804-3 0  9996,2 53999  53.2170   0.9539 0002448  91.3716 268.7557 15.08856084 15108,6917.831,95.437,541.39,538.003,0.0
53999.0,STARLINK-5079,PAYLOAD,2023-01-09 15:52:11,15.08864315,0.0001721999999999,53.217,359.1697,89.4337,270.6853,0.0010041,0.00015739,0.0,0 STARLINK-5079,1 53999U 22125AM  23009.66124114  .00015739  00000-0  10041-2 0  9999,2 53999  53.2170 359.1697 0001722  89.4337 270.6853 15.08864315 15098,6917.806,95.436,540.862,538.48,0.0
53999.0,STARLINK-5079,PAYLOAD,2023-01-10 02:59:54,15.08845711,0.0001230999999999,53.2158,357.0889,83.4341,276.6791,0.0010583,0.00016598,0.0,0 STARLINK-5079,1 53999U 22125AM  23010.12493091  .00016598  00000-0  10583-2 0  9990,2 53999  53.2158 357.0889 0001231  83.4341 276.6791 15.08845711 15230,6917.863,95.437,540.58,538.876,0.0
53999.0,STARLINK-5079,PAYLOAD,2023-01-10 07:46:03,15.088455599999998,0.000131,53.2167,356.1962,84.59899999999998,275.5151,0.00083665,0.00013054,0.0,0 STARLINK-5079,1 53999U 22125AM  23010.32365044  .00013054  00000-0  83665-3 0  9994,2 53999  53.2167 356.1962 0001310  84.5990 275.5151 15.08845560 15197,6917.863,95.437,540.635,538.822,0.0
53999.0,STARLINK-5079,PAYLOAD,2023-01-10 15:42:59,15.08837993,0.0001747,53.2165,354.7097,95.1293,264.9898,0.00046765,7.162e-05,0.0,0 STARLINK-5079,1 53999U 22125AM  23010.65485278  .00007162  00000-0  46765-3 0  9995,2 53999  53.2165 354.7097 0001747  95.1293 264.9898 15.08837993 15311,6917.887,95.438,540.96,538.543,0.0
53999.0,STARLINK-5079,PAYLOAD,2023-01-10 22:04:31,15.08845569,0.0001621,53.2153,353.5195,92.9983,267.1194,0.0007122999999999,0.00011068,0.0,0 STARLINK-5079,1 53999U 22125AM  23010.91981250  .00011068  00000-0  71230-3 0  9990,2 53999  53.2153 353.5195 0001621  92.9983 267.1194 15.08845569 15284,6917.863,95.437,540.85,538.607,0.0
53999.0,STARLINK-5079,PAYLOAD,2023-01-11 10:47:36,15.08866497,0.0001424,53.2154,351.1416,101.259,258.8562,0.0013519,0.00021309,0.0,0 STARLINK-5079,1 53999U 22125AM  23011.44972617  .00021309  00000-0  13519-2 0  9990,2 53999  53.2154 351.1416 0001424 101.2590 258.8562 15.08866497 15362,6917.799,95.436,540.649,538.679,0.0
53999.0,STARLINK-5079,PAYLOAD,2023-01-11 15:33:46,15.08830723,0.0001369,53.2148,350.2502,105.7286,254.3857,-0.00032676,-5.483e-05,0.0,0 STARLINK-5079,1 53999U 22125AM  23011.64845099 -.00005483  00000-0 -32676-3 0  9998,2 53999  53.2148 350.2502 0001369 105.7286 254.3857 15.08830723 15462,6917.9090000000015,95.438,540.721,538.827,0.0
53999.0,STARLINK-5079,PAYLOAD,2023-01-11 21:55:18,15.08831227,0.0001046,53.2169,349.06,125.3502,234.7588,-0.00020157,-3.493e-05,0.0,0 STARLINK-5079,1 53999U 22125AM  23011.91341114 -.00003493  00000-0 -20157-3 0  9997,2 53999  53.2169 349.0600 0001046 125.3502 234.7588 15.08831227 15431,6917.906999999998,95.438,540.496,539.049,0.0
53999.0,STARLINK-5079,PAYLOAD,2023-01-12 15:24:33,15.08840563,0.0001592,53.2154,345.7882,105.9155,254.2013,0.00038495,5.844e-05,0.0,0 STARLINK-5079,1 53999U 22125AM  23012.64205176  .00005844  00000-0  38495-3 0  9999,2 53999  53.2154 345.7882 0001592 105.9155 254.2013 15.08840563 15617,6917.879,95.438,540.845,538.6419999999998,0.0
53999.0,STARLINK-5079,PAYLOAD,2023-01-12 21:46:05,15.08843956,0.0001668,53.215,344.5996,100.4987,259.6194,0.00065756,0.00010194,0.0,0 STARLINK-5079,1 53999U 22125AM  23012.90701375  .00010194  00000-0  65756-3 0  9994,2 53999  53.2150 344.5996 0001668 100.4987 259.6194 15.08843956 15587,6917.868,95.437,540.887,538.5790000000002,0.0
53999.0,STARLINK-5079,PAYLOAD,2023-01-13 05:43:01,15.08855645,0.0001303,53.2153,343.1126,107.1635,252.9499,0.0024113,0.00038313,0.0,0 STARLINK-5079,1 53999U 22125AM  23013.23821296  .00038313  00000-0  24113-2 0  9990,2 53999  53.2153 343.1126 0001303 107.1635 252.9499 15.08855645 15706,6917.8330000000005,95.437,540.599,538.7959999999999,0.0
53999.0,STARLINK-5079,PAYLOAD,2023-01-13 21:36:53,15.08859293,0.0001544,53.2158,340.139,98.1998,261.9169,0.0020495,0.00032498,0.0,0 STARLINK-5079,1 53999U 22125AM  23013.90061737  .00032498  00000-0  20495-2 0  9997,2 53999  53.2158 340.1390 0001544  98.1998 261.9169 15.08859293 15739,6917.821,95.436,540.755,538.618,0.0
53999.0,STARLINK-5079,PAYLOAD,2023-01-14 03:58:25,15.08854434,0.0001452,53.2154,338.9487,96.5788,263.5369,0.001465,0.00023114,0.0,0 STARLINK-5079,1 53999U 22125AM  23014.16557662  .00023114  00000-0  14650-2 0  9994,2 53999  53.2154 338.9487 0001452  96.5788 263.5369 15.08854434 15848,6917.835999999999,95.437,540.706,538.697,0.0
53999.0,STARLINK-5079,PAYLOAD,2023-01-15 03:49:12,15.08870295,0.0001479,53.2158,334.4887,108.6334,251.4819,0.0024894,0.00039587,0.0,0 STARLINK-5079,1 53999U 22125AM  23015.15917441  .00039587  00000-0  24894-2 0  9991,2 53999  53.2158 334.4887 0001479 108.6334 251.4819 15.08870295 15993,6917.7880000000005,95.436,540.6759999999999,538.63,0.0
53999.0,STARLINK-5079,PAYLOAD,2023-01-15 06:59:58,15.08877588,0.0001345,53.2159,333.8935,108.8061,251.3077,0.0024589,0.00039103,0.0,0 STARLINK-5079,1 53999U 22125AM  23015.29165164  .00039103  00000-0  24589-2 0  9998,2 53999  53.2159 333.8935 0001345 108.8061 251.3077 15.08877588 15944,6917.765,95.435,540.561,538.7,0.0
53999.0,STARLINK-5079,PAYLOAD,2023-01-16 03:39:59,15.08859279,0.0001386999999999,53.2164,330.0277,88.5822,271.5329,0.0016209,0.00025616,0.0,0 STARLINK-5079,1 53999U 22125AM  23016.15277319  .00025616  00000-0  16209-2 0  9994,2 53999  53.2164 330.0277 0001387  88.5822 271.5329 15.08859279 16147,6917.821,95.436,540.646,538.727,0.0
53999.0,STARLINK-5079,PAYLOAD,2023-01-16 13:12:18,15.08843584,0.0001536,53.2165,328.2445,88.37,271.7468,0.0013289,0.00020927,0.0,0 STARLINK-5079,1 53999U 22125AM  23016.55021402  .00020927  00000-0  13289-2 0  9993,2 53999  53.2165 328.2445 0001536  88.3700 271.7468 15.08843584 16130,6917.869000000001,95.437,540.797,538.672,0.0
53999.0,STARLINK-5079,PAYLOAD,2023-01-16 19:33:51,15.08823606,0.0002731999999999,53.2156,327.0537,75.9753,284.1542,0.00082557,0.0001286999999999,0.0,0 STARLINK-5079,1 53999U 22125AM  23016.81518270  .00012870  00000-0  82557-3 0  9999,2 53999  53.2156 327.0537 0002732  75.9753 284.1542 15.08823606 16244,6917.93,95.439,541.685,537.906,0.0
53999.0,STARLINK-5079,PAYLOAD,2023-01-16 21:09:14,15.08819851,0.0001714,53.217,326.7578,88.6104,271.5084,-0.00026736,-4.538e-05,0.0,0 STARLINK-5079,1 53999U 22125AM  23016.88142145 -.00004538  00000-0 -26736-3 0  9991,2 53999  53.2170 326.7578 0001714  88.6104 271.5084 15.08819851 16182,6917.941999999999,95.439,540.993,538.621,0.0
53999.0,STARLINK-5079,PAYLOAD,2023-01-17 13:03:06,15.08840393,0.0001322,53.2146,323.7818,65.8705,294.2425,0.0011795999999999,0.00018535,0.0,0 STARLINK-5079,1 53999U 22125AM  23017.54382661  .00018535  00000-0  11796-2 0  9993,2 53999  53.2146 323.7818 0001322  65.8705 294.2425 15.08840393 16285,6917.879,95.438,540.659,538.83,0.0
